<?xml version="1.0"?>
<gpx version="1.1" creator="Generated by Swisstopo App. See https://www.swisstopo.ch/app for more information." xmlns="http://www.topografix.com/GPX/1/1" xmlns:xsi="http://www.w3.org/2001/XMLSchema-instance" xmlns:swisstopo="https://prod-static.swisstopo-app.ch/xmlschemas/SwisstopoExtensions" xsi:schemaLocation="http://www.topografix.com/GPX/1/1 http://www.topografix.com/GPX/1/1/gpx.xsd https://swisstopo-app.ch/xmlschemas/SwisstopoExtensions https://prod-static.swisstopo-app.ch/xmlschemas/SwisstopoExtensions.xsd">
	<wpt lat="47.1878197036" lon="8.6998068340">
		<ele>603.7</ele>
		<name>Wegpunkt</name>
		<desc>P15</desc>
		<extensions>
			<swisstopo:waypoint_id>1</swisstopo:waypoint_id>
		</extensions>
	</wpt>
	<wpt lat="47.1878016400" lon="8.6997107374">
		<ele>604.5</ele>
		<name>Wegpunkt</name>
		<desc>P14</desc>
		<extensions>
			<swisstopo:waypoint_id>2</swisstopo:waypoint_id>
		</extensions>
	</wpt>
	<wpt lat="47.1875315118" lon="8.6990148843">
		<ele>606.6</ele>
		<name>Wegpunkt</name>
		<desc>P13</desc>
		<extensions>
			<swisstopo:waypoint_id>3</swisstopo:waypoint_id>
		</extensions>
	</wpt>
	<wpt lat="47.1872200025" lon="8.6976813659">
		<ele>620.4</ele>
		<name>Wegpunkt</name>
		<desc>P12</desc>
		<extensions>
			<swisstopo:waypoint_id>4</swisstopo:waypoint_id>
		</extensions>
	</wpt>
	<wpt lat="47.1868295164" lon="8.6966791984">
		<ele>628.9</ele>
		<name>Wegpunkt</name>
		<desc>P11</desc>
		<extensions>
			<swisstopo:waypoint_id>5</swisstopo:waypoint_id>
		</extensions>
	</wpt>
	<wpt lat="47.1865998980" lon="8.6957731953">
		<ele>634.4</ele>
		<name>Wegpunkt</name>
		<desc>P10</desc>
		<extensions>
			<swisstopo:waypoint_id>6</swisstopo:waypoint_id>
		</extensions>
	</wpt>
	<wpt lat="47.1863564469" lon="8.6952066618">
		<ele>634.8</ele>
		<name>Wegpunkt</name>
		<desc>P9</desc>
		<extensions>
			<swisstopo:waypoint_id>7</swisstopo:waypoint_id>
		</extensions>
	</wpt>
	<wpt lat="47.1862477705" lon="8.6948610245">
		<ele>637.5</ele>
		<name>Wegpunkt</name>
		<desc>P8</desc>
		<extensions>
			<swisstopo:waypoint_id>8</swisstopo:waypoint_id>
		</extensions>
	</wpt>
	<wpt lat="47.1865951075" lon="8.6914680026">
		<ele>649.3</ele>
		<name>Wegpunkt</name>
		<desc>P7</desc>
		<extensions>
			<swisstopo:waypoint_id>9</swisstopo:waypoint_id>
		</extensions>
	</wpt>
	<wpt lat="47.1854062527" lon="8.6908727626">
		<ele>647.8</ele>
		<name>Wegpunkt</name>
		<desc>P6</desc>
		<extensions>
			<swisstopo:waypoint_id>10</swisstopo:waypoint_id>
		</extensions>
	</wpt>
	<wpt lat="47.1846910316" lon="8.6913937253">
		<ele>654.8</ele>
		<name>Wegpunkt</name>
		<desc>P5</desc>
		<extensions>
			<swisstopo:waypoint_id>11</swisstopo:waypoint_id>
		</extensions>
	</wpt>
	<wpt lat="47.1854382106" lon="8.6937204093">
		<ele>648.0</ele>
		<name>Wegpunkt</name>
		<desc>P4</desc>
		<extensions>
			<swisstopo:waypoint_id>12</swisstopo:waypoint_id>
		</extensions>
	</wpt>
	<wpt lat="47.1862184743" lon="8.6953815612">
		<ele>639.7</ele>
		<name>Wegpunkt</name>
		<desc>P3</desc>
		<extensions>
			<swisstopo:waypoint_id>13</swisstopo:waypoint_id>
		</extensions>
	</wpt>
	<wpt lat="47.1863972977" lon="8.6964084214">
		<ele>631.5</ele>
		<name>Wegpunkt</name>
		<desc>P2</desc>
		<extensions>
			<swisstopo:waypoint_id>14</swisstopo:waypoint_id>
		</extensions>
	</wpt>
	<wpt lat="47.1869423536" lon="8.6981861667">
		<ele>619.2</ele>
		<name>Wegpunkt</name>
		<desc>P1</desc>
		<extensions>
			<swisstopo:waypoint_id>15</swisstopo:waypoint_id>
		</extensions>
	</wpt>
	<wpt lat="47.1879242697" lon="8.7002183749">
		<ele>601.2</ele>
		<name>Wegpunkt</name>
		<desc>Strart</desc>
		<extensions>
			<swisstopo:waypoint_id>16</swisstopo:waypoint_id>
		</extensions>
	</wpt>
</gpx>
